{
  "type": "FeatureCollection",
  "features": [
    {
      "type": "Feature",
      "properties": {
        "norad_id": 38091,
        "name": "BEIDOU-2 G5 (C05)",
        "group": "gnss",
        "lat": 1.2209483702276926,
        "lon": -133.07603469335538,
        "alt_km": 35767.33215314795,
        "timestamp": "2025-12-02T06:27:53.256284+00:00",
        "meta_object_name": "BEIDOU-2 G5 (C05)",
        "meta_object_id": "2012-008A",
        "meta_epoch": "2025-12-01T20:45:38.742336",
        "meta_mean_motion": 1.00271896,
        "meta_eccentricity": 0.0012191,
        "meta_inclination": 3.0798,
        "meta_ra_of_asc_node": 70.7388,
        "meta_arg_of_pericenter": 225.3195,
        "meta_mean_anomaly": 145.0297,
        "meta_ephemeris_type": 0,
        "meta_classification_type": "U",
        "meta_norad_cat_id": 38091,
        "meta_element_set_no": 999,
        "meta_rev_at_epoch": 5039,
        "meta_bstar": 0,
        "meta_mean_motion_dot": 7.8e-07,
        "meta_mean_motion_ddot": 0,
        "tle_line1": "1 38091U 12008A   25335.86503174  .00000078  00000+0  00000+0 0  9997",
        "tle_line2": "2 38091   3.0798  70.7388 0012191 225.3195 145.0297  1.00271896 50393"
      },
      "geometry": {
        "type": "Point",
        "coordinates": [
          -133.07603469335538,
          1.2209483702276926
        ]
      }
    },
    {
      "type": "Feature",
      "properties": {
        "norad_id": 38250,
        "name": "BEIDOU-2 M3 (C11)",
        "group": "gnss",
        "lat": 55.3744405874904,
        "lon": 53.010293125925884,
        "alt_km": 21590.30775173602,
        "timestamp": "2025-12-02T06:27:53.256300+00:00",
        "meta_object_name": "BEIDOU-2 M3 (C11)",
        "meta_object_id": "2012-018A",
        "meta_epoch": "2025-12-01T01:13:35.126400",
        "meta_mean_motion": 1.86229725,
        "meta_eccentricity": 0.00245382,
        "meta_inclination": 55.9302,
        "meta_ra_of_asc_node": 311.5507,
        "meta_arg_of_pericenter": 273.3676,
        "meta_mean_anomaly": 86.348,
        "meta_ephemeris_type": 0,
        "meta_classification_type": "U",
        "meta_norad_cat_id": 38250,
        "meta_element_set_no": 999,
        "meta_rev_at_epoch": 9225,
        "meta_bstar": 0,
        "meta_mean_motion_dot": -5.3e-07,
        "meta_mean_motion_ddot": 0,
        "tle_line1": "1 38250U 12018A   25335.05110100 -.00000053  00000+0  00000+0 0  9993",
        "tle_line2": "2 38250  55.9302 311.5507 0024538 273.3676  86.3480  1.86229725 92251"
      },
      "geometry": {
        "type": "Point",
        "coordinates": [
          53.010293125925884,
          55.3744405874904
        ]
      }
    },
    {
      "type": "Feature",
      "properties": {
        "norad_id": 38251,
        "name": "BEIDOU-2 M4 (C12)",
        "group": "gnss",
        "lat": 30.55523724841171,
        "lon": 107.08824099090182,
        "alt_km": 21555.11861104913,
        "timestamp": "2025-12-02T06:27:53.256312+00:00",
        "meta_object_name": "BEIDOU-2 M4 (C12)",
        "meta_object_id": "2012-018B",
        "meta_epoch": "2025-11-30T23:35:43.237248",
        "meta_mean_motion": 1.86229405,
        "meta_eccentricity": 0.00156645,
        "meta_inclination": 55.8317,
        "meta_ra_of_asc_node": 310.7829,
        "meta_arg_of_pericenter": 276.4205,
        "meta_mean_anomaly": 83.3972,
        "meta_ephemeris_type": 0,
        "meta_classification_type": "U",
        "meta_norad_cat_id": 38251,
        "meta_element_set_no": 999,
        "meta_rev_at_epoch": 9225,
        "meta_bstar": 0,
        "meta_mean_motion_dot": -5.3e-07,
        "meta_mean_motion_ddot": 0,
        "tle_line1": "1 38251U 12018B   25334.98313932 -.00000053  00000+0  00000+0 0  9993",
        "tle_line2": "2 38251  55.8317 310.7829 0015664 276.4205  83.3972  1.86229405 92255"
      },
      "geometry": {
        "type": "Point",
        "coordinates": [
          107.08824099090182,
          30.55523724841171
        ]
      }
    },
    {
      "type": "Feature",
      "properties": {
        "norad_id": 38652,
        "name": "SES-5 (EGNOS/PRN 136)",
        "group": "gnss",
        "lat": -0.06294776131786053,
        "lon": 173.28350722622855,
        "alt_km": 35783.766654858075,
        "timestamp": "2025-12-02T06:27:53.256327+00:00",
        "meta_object_name": "SES-5 (EGNOS/PRN 136)",
        "meta_object_id": "2012-036A",
        "meta_epoch": "2025-12-01T10:21:38.859264",
        "meta_mean_motion": 1.00271759,
        "meta_eccentricity": 0.00020278,
        "meta_inclination": 0.0603,
        "meta_ra_of_asc_node": 301.5764,
        "meta_arg_of_pericenter": 306.3545,
        "meta_mean_anomaly": 343.018,
        "meta_ephemeris_type": 0,
        "meta_classification_type": "U",
        "meta_norad_cat_id": 38652,
        "meta_element_set_no": 999,
        "meta_rev_at_epoch": 4248,
        "meta_bstar": 0,
        "meta_mean_motion_dot": 5.6e-07,
        "meta_mean_motion_ddot": 0,
        "tle_line1": "1 38652U 12036A   25335.43169976  .00000056  00000+0  00000+0 0  9998",
        "tle_line2": "2 38652   0.0603 301.5764 0002027 306.3545 343.0180  1.00271759 42487"
      },
      "geometry": {
        "type": "Point",
        "coordinates": [
          173.28350722622855,
          -0.06294776131786053
        ]
      }
    },
    {
      "type": "Feature",
      "properties": {
        "norad_id": 38775,
        "name": "BEIDOU-2 M6 (C14)",
        "group": "gnss",
        "lat": -19.73289747844393,
        "lon": 55.62088192957156,
        "alt_km": 21501.13617584689,
        "timestamp": "2025-12-02T06:27:53.256339+00:00",
        "meta_object_name": "BEIDOU-2 M6 (C14)",
        "meta_object_id": "2012-050B",
        "meta_epoch": "2025-11-30T03:46:17.715072",
        "meta_mean_motion": 1.86230748,
        "meta_eccentricity": 0.00108176,
        "meta_inclination": 56.3677,
        "meta_ra_of_asc_node": 69.4852,
        "meta_arg_of_pericenter": 346.8684,
        "meta_mean_anomaly": 13.1099,
        "meta_ephemeris_type": 0,
        "meta_classification_type": "U",
        "meta_norad_cat_id": 38775,
        "meta_element_set_no": 999,
        "meta_rev_at_epoch": 8960,
        "meta_bstar": 0,
        "meta_mean_motion_dot": -3.1e-07,
        "meta_mean_motion_ddot": 0,
        "tle_line1": "1 38775U 12050B   25334.15714948 -.00000031  00000+0  00000+0 0  9997",
        "tle_line2": "2 38775  56.3677  69.4852 0010817 346.8684  13.1099  1.86230748 89601"
      },
      "geometry": {
        "type": "Point",
        "coordinates": [
          55.62088192957156,
          -19.73289747844393
        ]
      }
    },
    {
      "type": "Feature",
      "properties": {
        "norad_id": 38779,
        "name": "GSAT-10 (GAGAN/PRN 128)",
        "group": "gnss",
        "lat": -0.022048049653277793,
        "lon": -108.67932985633792,
        "alt_km": 35791.40024808753,
        "timestamp": "2025-12-02T06:27:53.256352+00:00",
        "meta_object_name": "GSAT-10 (GAGAN/PRN 128)",
        "meta_object_id": "2012-051B",
        "meta_epoch": "2025-12-01T19:01:39.503712",
        "meta_mean_motion": 1.00269349,
        "meta_eccentricity": 0.0002639,
        "meta_inclination": 0.0364,
        "meta_ra_of_asc_node": 261.9825,
        "meta_arg_of_pericenter": 234.8798,
        "meta_mean_anomaly": 302.437,
        "meta_ephemeris_type": 0,
        "meta_classification_type": "U",
        "meta_norad_cat_id": 38779,
        "meta_element_set_no": 999,
        "meta_rev_at_epoch": 4811,
        "meta_bstar": 0,
        "meta_mean_motion_dot": -1.43e-06,
        "meta_mean_motion_ddot": 0,
        "tle_line1": "1 38779U 12051B   25335.79281833 -.00000143  00000+0  00000+0 0  9999",
        "tle_line2": "2 38779   0.0364 261.9825 0002639 234.8798 302.4370  1.00269349 48110"
      },
      "geometry": {
        "type": "Point",
        "coordinates": [
          -108.67932985633792,
          -0.022048049653277793
        ]
      }
    },
    {
      "type": "Feature",
      "properties": {
        "norad_id": 38833,
        "name": "GPS BIIF-3  (PRN 24)",
        "group": "gnss",
        "lat": -52.39062040319793,
        "lon": 77.99059661313339,
        "alt_km": 20562.18779072668,
        "timestamp": "2025-12-02T06:27:53.256364+00:00",
        "meta_object_name": "GPS BIIF-3  (PRN 24)",
        "meta_object_id": "2012-053A",
        "meta_epoch": "2025-11-30T21:15:05.262912",
        "meta_mean_motion": 2.00564831,
        "meta_eccentricity": 0.01754484,
        "meta_inclination": 53.5557,
        "meta_ra_of_asc_node": 151.7243,
        "meta_arg_of_pericenter": 63.8273,
        "meta_mean_anomaly": 298.0063,
        "meta_ephemeris_type": 0,
        "meta_classification_type": "U",
        "meta_norad_cat_id": 38833,
        "meta_element_set_no": 999,
        "meta_rev_at_epoch": 9546,
        "meta_bstar": 0,
        "meta_mean_motion_dot": 1.23e-06,
        "meta_mean_motion_ddot": 0,
        "tle_line1": "1 38833U 12053A   25334.88547758  .00000123  00000+0  00000+0 0  9999",
        "tle_line2": "2 38833  53.5557 151.7243 0175448  63.8273 298.0063  2.00564831 95469"
      },
      "geometry": {
        "type": "Point",
        "coordinates": [
          77.99059661313339,
          -52.39062040319793
        ]
      }
    }
  ]
}